[
    {
        "Altitude(m)": 607886.7146105182,
        "Argument of Periapsis(deg)": 0.0,
        "Eccentricity": 0.0,
        "Inclination(deg)": 60.0,
        "Latitude(deg)": 40.99850639175298,
        "Longitude(deg)": 169.9730336147663,
        "Mean Anomaly(deg)": 49.09089999999999,
        "RAAN(deg)": 240.0,
        "Satellite Name": "Test1 1059",
        "Satellite Number": 1059,
        "Semi-Major Axis(m)": 6980739.136638005,
        "Time(s)": 0
    },
    {
        "Altitude(m)": 607987.628497854,
        "Argument of Periapsis(deg)": 0.00010418945913296404,
        "Eccentricity": 0.0,
        "Inclination(deg)": 60.0,
        "Latitude(deg)": 41.463595908123274,
        "Longitude(deg)": 170.47726286148495,
        "Mean Anomaly(deg)": 49.711006145461845,
        "RAAN(deg)": 239.99957995086024,
        "Satellite Name": "Test1 1059",
        "Satellite Number": 1059,
        "Semi-Major Axis(m)": 6980739.136638005,
        "Time(s)": 10
    }
]